start=new Date('2022-03-30T00:00:00.000Z').valueOf();
sats=[{"BSTAR":"0.00258310000000","MEAN_MOTION_DDOT":"0.0000000000000","EPOCH":"2022-03-29T22:00:00.999936","TLE_LINE1":"1 50180U 21125AA  22088.91667824  .00041029  00000-0  25831-2 0  9995","MEAN_MOTION_DOT":"0.00041029","ARG_OF_PERICENTER":"33.0862","ELEMENT_SET_NO":"999","TLE_LINE2":"2 50180  53.2179 236.9878 0002080  33.0862 116.6330 15.08810260 16006","SEMIMAJOR_AXIS":"6917.971","REF_FRAME":"TEME","REV_AT_EPOCH":"1600","PERIAPSIS":"538.397","OBJECT_ID":"2021-125AA","LAUNCH_DATE":"2021-12-18","INCLINATION":"53.2179","ECCENTRICITY":"0.00020800","DECAY_DATE":null,"MEAN_MOTION":"15.08810260","PERIOD":"95.439","RCS_SIZE":"LARGE","SITE":"AFWTR","CLASSIFICATION_TYPE":"U","CENTER_NAME":"EARTH","RA_OF_ASC_NODE":"236.9878","GP_ID":"200022312","EPHEMERIS_TYPE":"0","COUNTRY_CODE":"US","NORAD_CAT_ID":"50180","APOAPSIS":"541.275","TIME_SYSTEM":"UTC","MEAN_ELEMENT_THEORY":"SGP4","FILE":"3379484","MEAN_ANOMALY":"116.6330","OBJECT_NAME":"STARLINK-3265","OBJECT_TYPE":"PAYLOAD"},{"EPHEMERIS_TYPE":"0","COUNTRY_CODE":"US","TIME_SYSTEM":"UTC","NORAD_CAT_ID":"50181","APOAPSIS":"541.120","FILE":"3379484","MEAN_ELEMENT_THEORY":"SGP4","MEAN_ANOMALY":"151.2236","OBJECT_NAME":"STARLINK-3285","OBJECT_TYPE":"PAYLOAD","LAUNCH_DATE":"2021-12-18","DECAY_DATE":null,"ECCENTRICITY":"0.00020350","INCLINATION":"53.2158","PERIOD":"95.437","MEAN_MOTION":"15.08850977","SITE":"AFWTR","RCS_SIZE":"LARGE","CENTER_NAME":"EARTH","CLASSIFICATION_TYPE":"U","GP_ID":"200022560","RA_OF_ASC_NODE":"236.9866","ARG_OF_PERICENTER":"38.4181","TLE_LINE2":"2 50181  53.2158 236.9866 0002035  38.4181 151.2236 15.08850977  3582","ELEMENT_SET_NO":"999","SEMIMAJOR_AXIS":"6917.847","REV_AT_EPOCH":"358","REF_FRAME":"TEME","PERIAPSIS":"538.304","OBJECT_ID":"2021-125AB","BSTAR":"0.00048094000000","MEAN_MOTION_DDOT":"0.0000000000000","EPOCH":"2022-03-29T22:00:00.999936","TLE_LINE1":"1 50181U 21125AB  22088.91667824  .00007377  00000-0  48094-3 0  9991","MEAN_MOTION_DOT":"0.00007377"},{"TIME_SYSTEM":"UTC","NORAD_CAT_ID":"50182","APOAPSIS":"541.237","EPHEMERIS_TYPE":"0","COUNTRY_CODE":"US","OBJECT_NAME":"STARLINK-3277","OBJECT_TYPE":"PAYLOAD","FILE":"3379484","MEAN_ELEMENT_THEORY":"SGP4","MEAN_ANOMALY":"189.6693","PERIOD":"95.439","MEAN_MOTION":"15.08817038","LAUNCH_DATE":"2021-12-18","DECAY_DATE":null,"ECCENTRICITY":"0.00020550","INCLINATION":"53.2157","GP_ID":"200020810","RA_OF_ASC_NODE":"236.9857","SITE":"AFWTR","RCS_SIZE":"LARGE","CENTER_NAME":"EARTH","CLASSIFICATION_TYPE":"U","SEMIMAJOR_AXIS":"6917.951","ARG_OF_PERICENTER":"40.0377","TLE_LINE2":"2 50182  53.2157 236.9857 0002055  40.0377 189.6693 15.08817038  3594","ELEMENT_SET_NO":"999","OBJECT_ID":"2021-125AC","REV_AT_EPOCH":"359","REF_FRAME":"TEME","PERIAPSIS":"538.394","EPOCH":"2022-03-29T22:00:00.999936","TLE_LINE1":"1 50182U 21125AC  22088.91667824  .00040795  00000-0  25681-2 0  9999","BSTAR":"0.00256810000000","MEAN_MOTION_DDOT":"0.0000000000000","MEAN_MOTION_DOT":"0.00040795"},{"NORAD_CAT_ID":"50183","APOAPSIS":"541.339","TIME_SYSTEM":"UTC","EPHEMERIS_TYPE":"0","COUNTRY_CODE":"US","OBJECT_NAME":"STARLINK-3281","OBJECT_TYPE":"PAYLOAD","MEAN_ELEMENT_THEORY":"SGP4","FILE":"3379484","MEAN_ANOMALY":"170.6963","MEAN_MOTION":"15.08812988","PERIOD":"95.439","LAUNCH_DATE":"2021-12-18","INCLINATION":"53.2167","ECCENTRICITY":"0.00021840","DECAY_DATE":null,"RA_OF_ASC_NODE":"236.9868","GP_ID":"200021060","RCS_SIZE":"LARGE","SITE":"AFWTR","CLASSIFICATION_TYPE":"U","CENTER_NAME":"EARTH","SEMIMAJOR_AXIS":"6917.963","ARG_OF_PERICENTER":"39.0168","ELEMENT_SET_NO":"999","TLE_LINE2":"2 50183  53.2167 236.9868 0002184  39.0168 170.6963 15.08812988  3596","OBJECT_ID":"2021-125AD","REF_FRAME":"TEME","REV_AT_EPOCH":"359","PERIAPSIS":"538.317","EPOCH":"2022-03-29T22:00:00.999936","TLE_LINE1":"1 50183U 21125AD  22088.91667824  .00041999  00000-0  26432-2 0  9992","MEAN_MOTION_DDOT":"0.0000000000000","BSTAR":"0.00264320000000","MEAN_MOTION_DOT":"0.00041999"},{"BSTAR":"0.00046025000000","MEAN_MOTION_DDOT":"0.0000000000000","TLE_LINE1":"1 50185U 21125AF  22088.91667824  .00007043  00000-0  46025-3 0  9997","EPOCH":"2022-03-29T22:00:00.999936","MEAN_MOTION_DOT":"0.00007043","ELEMENT_SET_NO":"999","TLE_LINE2":"2 50185  53.2177 236.9873 0002100  39.6375 130.0769 15.08832191  3580","ARG_OF_PERICENTER":"39.6375","SEMIMAJOR_AXIS":"6917.904","PERIAPSIS":"538.316","REF_FRAME":"TEME","REV_AT_EPOCH":"358","OBJECT_ID":"2021-125AF","INCLINATION":"53.2177","ECCENTRICITY":"0.00021000","DECAY_DATE":null,"LAUNCH_DATE":"2021-12-18","MEAN_MOTION":"15.08832191","PERIOD":"95.438","CLASSIFICATION_TYPE":"U","CENTER_NAME":"EARTH","RCS_SIZE":"LARGE","SITE":"AFWTR","RA_OF_ASC_NODE":"236.9873","GP_ID":"200021812","COUNTRY_CODE":"US","EPHEMERIS_TYPE":"0","APOAPSIS":"541.222","NORAD_CAT_ID":"50185","TIME_SYSTEM":"UTC","MEAN_ANOMALY":"130.0769","MEAN_ELEMENT_THEORY":"SGP4","FILE":"3379484","OBJECT_TYPE":"PAYLOAD","OBJECT_NAME":"STARLINK-3279"},{"MEAN_MOTION_DOT":"0.00010880","MEAN_MOTION_DDOT":"0.0000000000000","BSTAR":"0.00070079000000","TLE_LINE1":"1 50186U 21125AG  22088.91667824  .00010880  00000-0  70079-3 0  9997","EPOCH":"2022-03-29T22:00:00.999936","PERIAPSIS":"538.380","REF_FRAME":"TEME","REV_AT_EPOCH":"357","OBJECT_ID":"2021-125AG","ELEMENT_SET_NO":"999","TLE_LINE2":"2 50186  53.2145 246.9890 0002014  39.5692  55.1640 15.08830970  3578","ARG_OF_PERICENTER":"39.5692","SEMIMAJOR_AXIS":"6917.908","CENTER_NAME":"EARTH","CLASSIFICATION_TYPE":"U","SITE":"AFWTR","RCS_SIZE":"LARGE","RA_OF_ASC_NODE":"246.9890","GP_ID":"200022060","INCLINATION":"53.2145","ECCENTRICITY":"0.00020140","DECAY_DATE":null,"LAUNCH_DATE":"2021-12-18","MEAN_MOTION":"15.08830970","PERIOD":"95.438","MEAN_ANOMALY":"55.1640","MEAN_ELEMENT_THEORY":"SGP4","FILE":"3379484","OBJECT_TYPE":"PAYLOAD","OBJECT_NAME":"STARLINK-3274","COUNTRY_CODE":"US","EPHEMERIS_TYPE":"0","NORAD_CAT_ID":"50186","APOAPSIS":"541.166","TIME_SYSTEM":"UTC"},{"MEAN_MOTION_DOT":"-0.00557377","MEAN_MOTION_DDOT":"0.0000000000000","BSTAR":"-0.02043900000000","TLE_LINE1":"1 50187U 21125AH  22088.91667824 -.00557377  00000-0 -20439-1 0  9990","EPOCH":"2022-03-29T22:00:00.999936","PERIAPSIS":"474.814","REF_FRAME":"TEME","REV_AT_EPOCH":"363","OBJECT_ID":"2021-125AH","ELEMENT_SET_NO":"999","TLE_LINE2":"2 50187  53.2159 228.0926 0001878  42.0766  93.9631 15.29903854  3635","ARG_OF_PERICENTER":"42.0766","SEMIMAJOR_AXIS":"6854.236","CLASSIFICATION_TYPE":"U","CENTER_NAME":"EARTH","RCS_SIZE":"LARGE","SITE":"AFWTR","RA_OF_ASC_NODE":"228.0926","GP_ID":"200021310","INCLINATION":"53.2159","ECCENTRICITY":"0.00018780","DECAY_DATE":null,"LAUNCH_DATE":"2021-12-18","MEAN_MOTION":"15.29903854","PERIOD":"94.124","MEAN_ANOMALY":"93.9631","MEAN_ELEMENT_THEORY":"SGP4","FILE":"3379484","OBJECT_TYPE":"PAYLOAD","OBJECT_NAME":"STARLINK-3272","COUNTRY_CODE":"US","EPHEMERIS_TYPE":"0","NORAD_CAT_ID":"50187","APOAPSIS":"477.389","TIME_SYSTEM":"UTC"},{"RA_OF_ASC_NODE":"228.0927","GP_ID":"200021560","SITE":"AFWTR","RCS_SIZE":"LARGE","CENTER_NAME":"EARTH","CLASSIFICATION_TYPE":"U","MEAN_MOTION":"15.29775657","PERIOD":"94.131","LAUNCH_DATE":"2021-12-18","ECCENTRICITY":"0.00018210","INCLINATION":"53.2159","DECAY_DATE":null,"OBJECT_NAME":"STARLINK-3275","OBJECT_TYPE":"PAYLOAD","MEAN_ELEMENT_THEORY":"SGP4","FILE":"3379484","MEAN_ANOMALY":"82.1725","NORAD_CAT_ID":"50188","APOAPSIS":"477.733","TIME_SYSTEM":"UTC","EPHEMERIS_TYPE":"0","COUNTRY_CODE":"US","MEAN_MOTION_DOT":"-0.00554957","EPOCH":"2022-03-29T22:00:00.999936","TLE_LINE1":"1 50188U 21125AJ  22088.91667824 -.00554957  00000-0 -20425-1 0  9997","BSTAR":"-0.02042500000000","MEAN_MOTION_DDOT":"0.0000000000000","OBJECT_ID":"2021-125AJ","REF_FRAME":"TEME","REV_AT_EPOCH":"363","PERIAPSIS":"475.236","SEMIMAJOR_AXIS":"6854.619","ARG_OF_PERICENTER":"40.1238","ELEMENT_SET_NO":"999","TLE_LINE2":"2 50188  53.2159 228.0927 0001821  40.1238  82.1725 15.29775657  3630"},{"MEAN_MOTION_DDOT":"0.0000000000000","BSTAR":"0.00235880000000","TLE_LINE1":"1 50189U 21125AK  22088.91667824  .00037423  00000-0  23588-2 0  9994","EPOCH":"2022-03-29T22:00:00.999936","MEAN_MOTION_DOT":"0.00037423","ELEMENT_SET_NO":"999","TLE_LINE2":"2 50189  53.2120 237.0037 0001346  63.3626 206.3623 15.08812226  3594","ARG_OF_PERICENTER":"63.3626","SEMIMAJOR_AXIS":"6917.965","PERIAPSIS":"538.899","REF_FRAME":"TEME","REV_AT_EPOCH":"359","OBJECT_ID":"2021-125AK","ECCENTRICITY":"0.00013460","INCLINATION":"53.2120","DECAY_DATE":null,"LAUNCH_DATE":"2021-12-18","MEAN_MOTION":"15.08812226","PERIOD":"95.439","CENTER_NAME":"EARTH","CLASSIFICATION_TYPE":"U","SITE":"AFWTR","RCS_SIZE":"LARGE","RA_OF_ASC_NODE":"237.0037","GP_ID":"200022313","COUNTRY_CODE":"US","EPHEMERIS_TYPE":"0","APOAPSIS":"540.761","NORAD_CAT_ID":"50189","TIME_SYSTEM":"UTC","MEAN_ANOMALY":"206.3623","MEAN_ELEMENT_THEORY":"SGP4","FILE":"3379484","OBJECT_TYPE":"PAYLOAD","OBJECT_NAME":"STARLINK-3276"},{"RA_OF_ASC_NODE":"228.0919","GP_ID":"200022561","RCS_SIZE":"LARGE","SITE":"AFWTR","CENTER_NAME":"EARTH","CLASSIFICATION_TYPE":"U","MEAN_MOTION":"15.30272004","PERIOD":"94.101","LAUNCH_DATE":"2021-12-18","INCLINATION":"53.2160","ECCENTRICITY":"0.00015880","DECAY_DATE":null,"OBJECT_NAME":"STARLINK-3268","OBJECT_TYPE":"PAYLOAD","MEAN_ELEMENT_THEORY":"SGP4","FILE":"3379484","MEAN_ANOMALY":"128.0142","APOAPSIS":"476.090","NORAD_CAT_ID":"50190","TIME_SYSTEM":"UTC","EPHEMERIS_TYPE":"0","COUNTRY_CODE":"US","MEAN_MOTION_DOT":"-0.00546728","EPOCH":"2022-03-29T22:00:00.999936","TLE_LINE1":"1 50190U 21125AL  22088.91667824 -.00546728  00000-0 -19793-1 0  9993","BSTAR":"-0.01979300000000","MEAN_MOTION_DDOT":"0.0000000000000","OBJECT_ID":"2021-125AL","REF_FRAME":"TEME","REV_AT_EPOCH":"363","PERIAPSIS":"473.914","SEMIMAJOR_AXIS":"6853.137","ARG_OF_PERICENTER":"49.0433","ELEMENT_SET_NO":"999","TLE_LINE2":"2 50190  53.2160 228.0919 0001588  49.0433 128.0142 15.30272004  3634"}];
